      2.10          N: GNSS NAV DATA                        RINEX VERSION / TYPE
fic2rin                                 01/26/2024 00:17:49 PGM / RUN BY / DATE
                                                            END OF HEADER
3  24  1 25  1 59 44.0  .148787163198D-03  .252384779742D-10  .000000000000D+00
     .340000000000D+02 -.112906250000D+03  .412945772278D-08  .110862187281D+01
    -.592507421970D-05  .506264367141D-02  .294111669064D-05  .515379449844D+04
     .352784000000D+06 -.104308128357D-06 -.958236922506D+00  .800937414169D-07
     .982506783180D+00  .333468750000D+03  .107282208181D+01 -.815033949435D-08
    -.337871216549D-09  .100000000000D+01  .229800000000D+04  .000000000000D+00
     .240000000000D+01  .000000000000D+00  .186264514923D-08  .340000000000D+02
     .345600000000D+06  .400000000000D+01
8  24  1 25  1 59 44.0 -.163730233908D-03 -.181898940355D-11  .000000000000D+00
     .330000000000D+02  .842500000000D+02  .436375319641D-08 -.197542400155D+01
     .406615436077D-05  .925244682003D-02  .104624778032D-04  .515358200073D+04
     .352784000000D+06  .484287738800D-07 -.308684344772D+01 -.158324837685D-06
     .955440140591D+00  .176312500000D+03  .306409876984D+00 -.773782231136D-08
    -.871464871438D-10  .100000000000D+01  .229800000000D+04  .000000000000D+00
     .240000000000D+01  .000000000000D+00  .512227416039D-08  .330000000000D+02
     .345600000000D+06  .400000000000D+01
12 24  1 25 16  0  0.0 -.471452716738D-03 -.375166564481D-11  .000000000000D+00
     .980000000000D+02 -.210000000000D+02  .469233831187D-08  .184939596139D+01
    -.135600566864D-05  .894025061280D-02  .674277544022D-05  .515371169281D+04
     .403200000000D+06  .204890966415D-07  .224982505980D+01 -.221654772758D-06
     .963061670218D+00  .248250000000D+03  .140790821943D+01 -.790532928870D-08
    -.540736809573D-09  .100000000000D+01  .229800000000D+04  .000000000000D+00
     .340000000000D+01  .000000000000D+00 -.125728547573D-07  .980000000000D+02
     .396000000000D+06  .400000000000D+01
7  24  1 25 16  0  0.0 -.460343435407D-04 -.920863385545D-11  .000000000000D+00
     .960000000000D+02  .199375000000D+02  .495377777330D-08  .254928132727D+01
     .854954123497D-06  .178401668090D-01  .702217221260D-05  .515366995811D+04
     .403200000000D+06  .521540641785D-07  .113399692128D+01 -.257045030594D-06
     .950025914427D+00  .238500000000D+03 -.215519720887D+01 -.781818280155D-08
     .560737642688D-09  .100000000000D+01  .229800000000D+04  .000000000000D+00
     .240000000000D+01  .000000000000D+00 -.111758708954D-07  .960000000000D+02
     .396000000000D+06  .400000000000D+01
8  24  1 25 16  0  0.0 -.163821969181D-03 -.181898940355D-11  .000000000000D+00
     .970000000000D+02  .636562500000D+02  .430160775066D-08 -.905035189914D+00
     .328943133354D-05  .925702659879D-02  .105146318674D-04  .515358271790D+04
     .403200000000D+06  .244006514549D-06 -.308723356554D+01 -.335276126862D-07
     .955427142564D+00  .174906250000D+03  .306803985652D+00 -.781639701288D-08
    -.352871841386D-09  .100000000000D+01  .229800000000D+04  .000000000000D+00
     .240000000000D+01  .000000000000D+00  .512227416039D-08  .970000000000D+02
     .396000000000D+06  .400000000000D+01
32 24  1 25 16  0  0.0 -.607600435615D-03 -.261479726760D-11  .000000000000D+00
     .220000000000D+02 -.830937500000D+02  .426160608443D-08 -.135192943969D+00
    -.433251261711D-05  .743992114440D-02  .104252249002D-04  .515363411713D+04
     .403200000000D+06 -.130385160446D-07  .763157782642D-01  .931322574615D-07
     .961619989321D+00  .181937500000D+03 -.219224169445D+01 -.789068582159D-08
     .215366113720D-09  .100000000000D+01  .229800000000D+04  .000000000000D+00
     .240000000000D+01  .000000000000D+00  .465661287308D-09  .220000000000D+02
     .396000000000D+06  .400000000000D+01
22 24  1 25 16  0  0.0  .422052107751D-04 -.636646291241D-11  .000000000000D+00
     .270000000000D+02 -.185937500000D+02  .487877464912D-08 -.332178040800D+00
    -.987201929092D-06  .146028640447D-01  .699423253536D-05  .515371212196D+04
     .403200000000D+06 -.130385160446D-06  .227113000685D+01 -.104308128357D-06
     .961924500108D+00  .248375000000D+03 -.114546616245D+01 -.830177437365D-08
    -.463947896721D-09  .100000000000D+01  .229800000000D+04  .000000000000D+00
     .340000000000D+01  .000000000000D+00 -.111758708954D-07  .270000000000D+02
     .396000000000D+06  .400000000000D+01
20 24  1 25 16  0  0.0  .390010885894D-03 -.147792889038D-11  .000000000000D+00
     .140000000000D+02 -.727187500000D+02  .486020244694D-08 -.232476988048D+01
    -.367872416973D-05  .393799506128D-02  .193715095520D-06  .515370638084D+04
     .403200000000D+06  .372529029846D-08 -.113514599223D+01 -.558793544769D-07
     .951879637905D+00  .370031250000D+03 -.265511689936D+01 -.853321258541D-08
    -.105004373854D-09  .100000000000D+01  .229800000000D+04  .000000000000D+00
     .240000000000D+01  .000000000000D+00 -.838190317154D-08  .140000000000D+02
     .396000000000D+06  .400000000000D+01
21 24  1 25 16  0  0.0  .137224327773D-03 -.125055521494D-11  .000000000000D+00
     .300000000000D+02  .996875000000D+02  .452197407266D-08 -.930288845442D+00
     .516884028912D-05  .252736454131D-01  .392273068428D-05  .515372424889D+04
     .403200000000D+06 -.333413481712D-06 -.209831629728D+01 -.229105353355D-06
     .961800274956D+00  .311500000000D+03 -.643739791535D+00 -.839534970001D-08
     .516450083648D-09  .100000000000D+01  .229800000000D+04  .000000000000D+00
     .240000000000D+01  .000000000000D+00 -.102445483208D-07  .300000000000D+02
     .396000000000D+06  .400000000000D+01
25 24  1 25 16  0  0.0  .486470758915D-03  .125055521494D-11  .000000000000D+00
     .220000000000D+02 -.212812500000D+02  .509271213190D-08  .172714513914D+01
    -.131316483021D-05  .117776750121D-01  .628642737865D-05  .515361363602D+04
     .403200000000D+06 -.249594449997D-06  .216465999791D+01 -.197440385818D-06
     .950853798786D+00  .254375000000D+03  .107025400666D+01 -.819605568433D-08
    -.450018745087D-09  .100000000000D+01  .229800000000D+04  .000000000000D+00
     .240000000000D+01  .000000000000D+00  .558793544769D-08  .220000000000D+02
     .396000000000D+06  .400000000000D+01
28 24  1 25 16  0  0.0 -.109686516225D-03 -.119371179608D-10  .000000000000D+00
     .820000000000D+02  .176875000000D+02  .478769942690D-08  .107141519350D+01
     .964850187302D-06  .707454048097D-03  .728853046894D-05  .515357441330D+04
     .403200000000D+06 -.428408384323D-07  .109948719289D+01 -.242143869400D-07
     .961176412078D+00  .240000000000D+03  .171469586136D+01 -.798711840983D-08
     .554665961207D-09  .100000000000D+01  .229800000000D+04  .000000000000D+00
     .240000000000D+01  .000000000000D+00 -.931322574615D-08  .820000000000D+02
     .396000000000D+06  .400000000000D+01
31 24  1 25 16  0  0.0 -.227490905672D-03 -.113686837722D-12  .000000000000D+00
     .890000000000D+02  .190937500000D+02  .500306554062D-08  .169756080138D+01
     .106170773506D-05  .105994453188D-01  .730156898499D-05  .515366869545D+04
     .403200000000D+06 -.258907675743D-06  .115499110064D+01  .106170773506D-06
     .954019739300D+00  .239281250000D+03  .653392998384D+00 -.817176895841D-08
     .458233372974D-09  .100000000000D+01  .229800000000D+04  .000000000000D+00
     .240000000000D+01  .000000000000D+00 -.135041773319D-07  .890000000000D+02
     .396000000000D+06  .400000000000D+01
24 24  1 25 16  0  0.0 -.420358497649D-03 -.682121026330D-11  .000000000000D+00
     .760000000000D+02  .186562500000D+02  .527843415368D-08 -.268134709367D+01
     .823289155960D-06  .150684361579D-01  .745244324207D-05  .515372680283D+04
     .403200000000D+06  .234693288803D-06  .103906156497D+01 -.203028321266D-06
     .933763005240D+00  .218906250000D+03  .964506116031D+00 -.805569269479D-08
     .684671376454D-09  .100000000000D+01  .229800000000D+04  .000000000000D+00
     .240000000000D+01  .000000000000D+00  .232830643654D-08  .760000000000D+02
     .396000000000D+06  .400000000000D+01
29 24  1 25 16  0  0.0 -.608166679740D-03  .568434188608D-12  .000000000000D+00
     .850000000000D+02  .890937500000D+02  .384730311276D-08 -.897045279959D+00
     .452995300293D-05  .256347097456D-02  .114217400551D-04  .515366055870D+04
     .403200000000D+06 -.819563865662D-07 -.297981852908D+01 -.186264514923D-07
     .973534001473D+00  .165375000000D+03  .251667054847D+01 -.757852996191D-08
    -.259653672761D-09  .100000000000D+01  .229800000000D+04  .000000000000D+00
     .240000000000D+01  .000000000000D+00 -.102445483208D-07  .850000000000D+02
     .396000000000D+06  .400000000000D+01
16 24  1 25 16  0  0.0 -.376784242690D-03  .795807864051D-11  .000000000000D+00
     .870000000000D+02 -.190625000000D+02  .482770109313D-08  .958281020708D-01
    -.799074769020D-06  .139696868137D-01  .677630305290D-05  .515371416092D+04
     .403200000000D+06 -.335276126862D-07  .226782986115D+01  .186264514923D-06
     .962629437906D+00  .248687500000D+03  .819953488023D+00 -.824855787126D-08
    -.565023535498D-09  .100000000000D+01  .229800000000D+04  .000000000000D+00
     .340000000000D+01  .000000000000D+00 -.102445483208D-07  .870000000000D+02
     .396000000000D+06  .400000000000D+01
30 24  1 25 16  0  0.0 -.441031064838D-03  .477484718431D-11  .000000000000D+00
     .103000000000D+03  .241250000000D+02  .541665419682D-08  .244716804930D+01
     .126287341118D-05  .672154617496D-02  .696070492268D-05  .515369447708D+04
     .403200000000D+06 -.912696123123D-07  .113643711838D+01 -.949949026108D-07
     .935157659173D+00  .234468750000D+03 -.254210271365D+01 -.824962934446D-08
     .584667210879D-09  .100000000000D+01  .229800000000D+04  .000000000000D+00
     .240000000000D+01  .000000000000D+00  .372529029846D-08  .103000000000D+03
     .396000000000D+06  .400000000000D+01
